{
  "type": "FeatureCollection",
  "features": [
    {
      "type": "Feature",
      "properties": {
        "norad_id": 30646,
        "name": "FENGYUN 1C DEB",
        "group": "fengyun-1c-debris",
        "lat": 55.581144985976906,
        "lon": 1.3674816926946252,
        "alt_km": 830.4947818914334,
        "timestamp": "2025-12-19T22:41:52.671016+00:00",
        "meta_object_name": "FENGYUN 1C DEB",
        "meta_object_id": "1999-025APD",
        "meta_epoch": "2025-12-19T12:12:43.694784",
        "meta_mean_motion": 14.09667341,
        "meta_eccentricity": 0.004794,
        "meta_inclination": 98.6517,
        "meta_ra_of_asc_node": 13.7862,
        "meta_arg_of_pericenter": 12.9752,
        "meta_mean_anomaly": 347.264,
        "meta_ephemeris_type": 0,
        "meta_classification_type": "U",
        "meta_norad_cat_id": 30646,
        "meta_element_set_no": 999,
        "meta_rev_at_epoch": 96700,
        "meta_bstar": 0.00052853,
        "meta_mean_motion_dot": 8.94e-06,
        "meta_mean_motion_ddot": 0,
        "tle_line1": "1 30646U 99025APD 25353.50883906  .00000894  00000+0  52853-3 0  9997",
        "tle_line2": "2 30646  98.6517  13.7862 0047940  12.9752 347.2640 14.09667341967003"
      },
      "geometry": {
        "type": "Point",
        "coordinates": [
          1.3674816926946252,
          55.581144985976906
        ]
      }
    },
    {
      "type": "Feature",
      "properties": {
        "norad_id": 30647,
        "name": "FENGYUN 1C DEB",
        "group": "fengyun-1c-debris",
        "lat": -67.69898133418725,
        "lon": -50.74825152616803,
        "alt_km": 727.2182419197488,
        "timestamp": "2025-12-19T22:41:52.671026+00:00",
        "meta_object_name": "FENGYUN 1C DEB",
        "meta_object_id": "1999-025APE",
        "meta_epoch": "2025-12-18T19:06:55.916928",
        "meta_mean_motion": 14.56582983,
        "meta_eccentricity": 0.00296324,
        "meta_inclination": 98.9899,
        "meta_ra_of_asc_node": 285.3091,
        "meta_arg_of_pericenter": 154.9829,
        "meta_mean_anomaly": 232.3653,
        "meta_ephemeris_type": 0,
        "meta_classification_type": "U",
        "meta_norad_cat_id": 30647,
        "meta_element_set_no": 999,
        "meta_rev_at_epoch": 98077,
        "meta_bstar": 0.0016176816,
        "meta_mean_motion_dot": 7.203e-05,
        "meta_mean_motion_ddot": 0,
        "tle_line1": "1 30647U 99025APE 25352.79648052  .00007203  00000+0  16177-2 0  9998",
        "tle_line2": "2 30647  98.9899 285.3091 0029632 154.9829 232.3653 14.56582983980778"
      },
      "geometry": {
        "type": "Point",
        "coordinates": [
          -50.74825152616803,
          -67.69898133418725
        ]
      }
    },
    {
      "type": "Feature",
      "properties": {
        "norad_id": 30648,
        "name": "FENGYUN 1C DEB",
        "group": "fengyun-1c-debris",
        "lat": -40.80319312011336,
        "lon": -98.78139749319215,
        "alt_km": 748.0973166328704,
        "timestamp": "2025-12-19T22:41:52.671037+00:00",
        "meta_object_name": "FENGYUN 1C DEB",
        "meta_object_id": "1999-025APF",
        "meta_epoch": "2025-12-18T18:05:21.149664",
        "meta_mean_motion": 14.48208126,
        "meta_eccentricity": 0.00339948,
        "meta_inclination": 98.6416,
        "meta_ra_of_asc_node": 87.5439,
        "meta_arg_of_pericenter": 109.9742,
        "meta_mean_anomaly": 19.808,
        "meta_ephemeris_type": 0,
        "meta_classification_type": "U",
        "meta_norad_cat_id": 30648,
        "meta_element_set_no": 999,
        "meta_rev_at_epoch": 97953,
        "meta_bstar": 0.0015690912,
        "meta_mean_motion_dot": 5.852e-05,
        "meta_mean_motion_ddot": 0,
        "tle_line1": "1 30648U 99025APF 25352.75371701  .00005852  00000+0  15691-2 0  9997",
        "tle_line2": "2 30648  98.6416  87.5439 0033994 109.9742  19.8080 14.48208126979538"
      },
      "geometry": {
        "type": "Point",
        "coordinates": [
          -98.78139749319215,
          -40.80319312011336
        ]
      }
    },
    {
      "type": "Feature",
      "properties": {
        "norad_id": 30649,
        "name": "FENGYUN 1C DEB",
        "group": "fengyun-1c-debris",
        "lat": -68.37555153455422,
        "lon": -113.69315328957072,
        "alt_km": 806.044999024065,
        "timestamp": "2025-12-19T22:41:52.671047+00:00",
        "meta_object_name": "FENGYUN 1C DEB",
        "meta_object_id": "1999-025APG",
        "meta_epoch": "2025-12-19T05:00:39.271104",
        "meta_mean_motion": 14.2958435,
        "meta_eccentricity": 0.0051195,
        "meta_inclination": 98.8097,
        "meta_ra_of_asc_node": 88.5911,
        "meta_arg_of_pericenter": 153.0471,
        "meta_mean_anomaly": 265.8774,
        "meta_ephemeris_type": 0,
        "meta_classification_type": "U",
        "meta_norad_cat_id": 30649,
        "meta_element_set_no": 999,
        "meta_rev_at_epoch": 97156,
        "meta_bstar": 0.0012557,
        "meta_mean_motion_dot": 3.215e-05,
        "meta_mean_motion_ddot": 0,
        "tle_line1": "1 30649U 99025APG 25353.20878786  .00003215  00000+0  12557-2 0  9993",
        "tle_line2": "2 30649  98.8097  88.5911 0051195 153.0471 265.8774 14.29584350971567"
      },
      "geometry": {
        "type": "Point",
        "coordinates": [
          -113.69315328957072,
          -68.37555153455422
        ]
      }
    },
    {
      "type": "Feature",
      "properties": {
        "norad_id": 30650,
        "name": "FENGYUN 1C DEB",
        "group": "fengyun-1c-debris",
        "lat": -23.62018258632264,
        "lon": -149.31932605966773,
        "alt_km": 807.8341848581913,
        "timestamp": "2025-12-19T22:41:52.671057+00:00",
        "meta_object_name": "FENGYUN 1C DEB",
        "meta_object_id": "1999-025APH",
        "meta_epoch": "2025-12-19T01:30:11.618208",
        "meta_mean_motion": 14.1396918,
        "meta_eccentricity": 0.00722969,
        "meta_inclination": 99.2041,
        "meta_ra_of_asc_node": 33.8377,
        "meta_arg_of_pericenter": 172.2165,
        "meta_mean_anomaly": 218.3258,
        "meta_ephemeris_type": 0,
        "meta_classification_type": "U",
        "meta_norad_cat_id": 30650,
        "meta_element_set_no": 999,
        "meta_rev_at_epoch": 96388,
        "meta_bstar": 0.0012476091,
        "meta_mean_motion_dot": 2.383e-05,
        "meta_mean_motion_ddot": 0,
        "tle_line1": "1 30650U 99025APH 25353.06263447  .00002383  00000+0  12476-2 0  9996",
        "tle_line2": "2 30650  99.2041  33.8377 0072296 172.2165 218.3258 14.13969180963887"
      },
      "geometry": {
        "type": "Point",
        "coordinates": [
          -149.31932605966773,
          -23.62018258632264
        ]
      }
    },
    {
      "type": "Feature",
      "properties": {
        "norad_id": 30652,
        "name": "FENGYUN 1C DEB",
        "group": "fengyun-1c-debris",
        "lat": 71.59595393803131,
        "lon": -125.42556690988971,
        "alt_km": 863.8302394688235,
        "timestamp": "2025-12-19T22:41:52.671067+00:00",
        "meta_object_name": "FENGYUN 1C DEB",
        "meta_object_id": "1999-025APJ",
        "meta_epoch": "2025-12-19T01:51:16.914240",
        "meta_mean_motion": 14.07807708,
        "meta_eccentricity": 0.00074318,
        "meta_inclination": 98.7844,
        "meta_ra_of_asc_node": 26.0379,
        "meta_arg_of_pericenter": 244.8183,
        "meta_mean_anomaly": 142.3944,
        "meta_ephemeris_type": 0,
        "meta_classification_type": "U",
        "meta_norad_cat_id": 30652,
        "meta_element_set_no": 999,
        "meta_rev_at_epoch": 96783,
        "meta_bstar": 3.7962697e-05,
        "meta_mean_motion_dot": 2.1e-07,
        "meta_mean_motion_ddot": 0,
        "tle_line1": "1 30652U 99025APJ 25353.07727910  .00000021  00000+0  37963-4 0  9996",
        "tle_line2": "2 30652  98.7844  26.0379 0007431 244.8183 142.3944 14.07807708967832"
      },
      "geometry": {
        "type": "Point",
        "coordinates": [
          -125.42556690988971,
          71.59595393803131
        ]
      }
    },
    {
      "type": "Feature",
      "properties": {
        "norad_id": 30654,
        "name": "FENGYUN 1C DEB",
        "group": "fengyun-1c-debris",
        "lat": -6.498084709746863,
        "lon": -81.47111873549426,
        "alt_km": 835.5791387671588,
        "timestamp": "2025-12-19T22:41:52.671078+00:00",
        "meta_object_name": "FENGYUN 1C DEB",
        "meta_object_id": "1999-025APL",
        "meta_epoch": "2025-12-18T17:55:20.365536",
        "meta_mean_motion": 14.17122972,
        "meta_eccentricity": 0.00356455,
        "meta_inclination": 99.2426,
        "meta_ra_of_asc_node": 276.2206,
        "meta_arg_of_pericenter": 79.9527,
        "meta_mean_anomaly": 280.5665,
        "meta_ephemeris_type": 0,
        "meta_classification_type": "U",
        "meta_norad_cat_id": 30654,
        "meta_element_set_no": 999,
        "meta_rev_at_epoch": 96765,
        "meta_bstar": 0.00083430797,
        "meta_mean_motion_dot": 1.644e-05,
        "meta_mean_motion_ddot": 0,
        "tle_line1": "1 30654U 99025APL 25352.74676349  .00001644  00000+0  83431-3 0  9992",
        "tle_line2": "2 30654  99.2426 276.2206 0035645  79.9527 280.5665 14.17122972967650"
      },
      "geometry": {
        "type": "Point",
        "coordinates": [
          -81.47111873549426,
          -6.498084709746863
        ]
      }
    }
  ]
}